STARLINK-36170          
1 67083U 25298J   26009.91668981  .00091376  00000+0  14741-2 0  9999
2 67083  70.0000 171.0338 0003555 268.9605 117.6842 15.52458451  5509
STARLINK-36166          
1 67084U 25298K   26009.58978687  .00125994  00000+0  20165-2 0  9991
2 67084  70.0008 171.9312 0002802 228.9440 131.1505 15.52546511  4158
STARLINK-35794          
1 67085U 25298L   26009.56158262  .00029537  00000+0  67553-3 0  9998
2 67085  69.9998 172.2387 0003174 270.0974  89.9845 15.42700790  4149
STARLINK-35841          
1 67086U 25298M   26009.58876069  .00114286  00000+0  18320-2 0  9996
2 67086  70.0007 171.9262 0003255 274.9585  85.1230 15.52546261  4152
STARLINK-35842          
1 67087U 25298N   26009.60517135  .00067475  00000+0  15299-2 0  9995
2 67087  70.0000 172.3987 0002591 248.7904 111.3001 15.42730978  4147
STARLINK-35882          
1 67088U 25298P   26009.58807412  .00124114  00000+0  19862-2 0  9997
2 67088  70.0002 171.9240 0003194 276.7658  83.3166 15.52555936  4155
STARLINK-35763          
1 67089U 25298Q   26009.91668981  .00059959  00000+0  13631-2 0  9993
2 67089  69.9998 171.1886 0003432 275.0016 335.6773 15.42686481  5506
STARLINK-36060          
1 67090U 25298R   26009.91668981  .00063490  00000+0  14420-2 0  9997
2 67090  69.9999 171.0852 0003950 284.3617  56.2828 15.42694112  5446
STARLINK-36097          
1 67091U 25298S   26009.91668981  .00057344  00000+0  13043-2 0  9999
2 67091  69.9999 171.1111 0003350 275.0814  43.6016 15.42684910  5507
STARLINK-35792          
1 67092U 25298T   26009.91668981  .00071936  00000+0  16334-2 0  9999
2 67092  69.9998 171.1350 0003910 277.3341  19.3695 15.42662963  5444
STARLINK-35784          
1 67093U 25298U   26009.62029893  .00033073  00000+0  75484-3 0  9993
2 67093  69.9995 172.0397 0003497 258.3669 101.7121 15.42732453  4154
STARLINK-36202          
1 67094U 25298V   26009.61615974  .00009392  00000+0  21757-3 0  9995
2 67094  70.0003 172.0250 0003259 271.2905  88.7904 15.42713170  4157
