CCSDS_OMM_VERS = 2.0
CREATION_DATE  = 
ORIGINATOR     = 

OBJECT_NAME    = STARLINK-36170
OBJECT_ID      = 2025-298J
CENTER_NAME    = EARTH
REF_FRAME      = TEME
TIME_SYSTEM    = UTC
MEAN_ELEMENT_THEORY = SGP/SGP4

EPOCH          = 2026-01-09T22:00:01.999584
MEAN_MOTION    = 15.52458451
ECCENTRICITY   = .0003555
INCLINATION    = 70.0000
RA_OF_ASC_NODE = 171.0338
ARG_OF_PERICENTER = 268.9605
MEAN_ANOMALY   = 117.6842

EPHEMERIS_TYPE = 0
CLASSIFICATION_TYPE = U
NORAD_CAT_ID   = 67083
ELEMENT_SET_NO = 999
REV_AT_EPOCH   = 550
BSTAR          = .14741371E-2
MEAN_MOTION_DOT = .91376E-3
MEAN_MOTION_DDOT = 0

CCSDS_OMM_VERS = 2.0
CREATION_DATE  = 
ORIGINATOR     = 

OBJECT_NAME    = STARLINK-36166
OBJECT_ID      = 2025-298K
CENTER_NAME    = EARTH
REF_FRAME      = TEME
TIME_SYSTEM    = UTC
MEAN_ELEMENT_THEORY = SGP/SGP4

EPOCH          = 2026-01-09T14:09:17.585568
MEAN_MOTION    = 15.52546511
ECCENTRICITY   = .00028026
INCLINATION    = 70.0008
RA_OF_ASC_NODE = 171.9312
ARG_OF_PERICENTER = 228.9440
MEAN_ANOMALY   = 131.1505

EPHEMERIS_TYPE = 0
CLASSIFICATION_TYPE = U
NORAD_CAT_ID   = 67084
ELEMENT_SET_NO = 999
REV_AT_EPOCH   = 415
BSTAR          = .20165131E-2
MEAN_MOTION_DOT = .125994E-2
MEAN_MOTION_DDOT = 0

CCSDS_OMM_VERS = 2.0
CREATION_DATE  = 
ORIGINATOR     = 

OBJECT_NAME    = STARLINK-35794
OBJECT_ID      = 2025-298L
CENTER_NAME    = EARTH
REF_FRAME      = TEME
TIME_SYSTEM    = UTC
MEAN_ELEMENT_THEORY = SGP/SGP4

EPOCH          = 2026-01-09T13:28:40.738368
MEAN_MOTION    = 15.42700790
ECCENTRICITY   = .00031746
INCLINATION    = 69.9998
RA_OF_ASC_NODE = 172.2387
ARG_OF_PERICENTER = 270.0974
MEAN_ANOMALY   = 89.9845

EPHEMERIS_TYPE = 0
CLASSIFICATION_TYPE = U
NORAD_CAT_ID   = 67085
ELEMENT_SET_NO = 999
REV_AT_EPOCH   = 414
BSTAR          = .67553197E-3
MEAN_MOTION_DOT = .29537E-3
MEAN_MOTION_DDOT = 0

CCSDS_OMM_VERS = 2.0
CREATION_DATE  = 
ORIGINATOR     = 

OBJECT_NAME    = STARLINK-35841
OBJECT_ID      = 2025-298M
CENTER_NAME    = EARTH
REF_FRAME      = TEME
TIME_SYSTEM    = UTC
MEAN_ELEMENT_THEORY = SGP/SGP4

EPOCH          = 2026-01-09T14:07:48.923616
MEAN_MOTION    = 15.52546261
ECCENTRICITY   = .00032558
INCLINATION    = 70.0007
RA_OF_ASC_NODE = 171.9262
ARG_OF_PERICENTER = 274.9585
MEAN_ANOMALY   = 85.1230

EPHEMERIS_TYPE = 0
CLASSIFICATION_TYPE = U
NORAD_CAT_ID   = 67086
ELEMENT_SET_NO = 999
REV_AT_EPOCH   = 415
BSTAR          = .18320302E-2
MEAN_MOTION_DOT = .114286E-2
MEAN_MOTION_DDOT = 0

CCSDS_OMM_VERS = 2.0
CREATION_DATE  = 
ORIGINATOR     = 

OBJECT_NAME    = STARLINK-35842
OBJECT_ID      = 2025-298N
CENTER_NAME    = EARTH
REF_FRAME      = TEME
TIME_SYSTEM    = UTC
MEAN_ELEMENT_THEORY = SGP/SGP4

EPOCH          = 2026-01-09T14:31:26.804640
MEAN_MOTION    = 15.42730978
ECCENTRICITY   = .00025915
INCLINATION    = 70.0000
RA_OF_ASC_NODE = 172.3987
ARG_OF_PERICENTER = 248.7904
MEAN_ANOMALY   = 111.3001

EPHEMERIS_TYPE = 0
CLASSIFICATION_TYPE = U
NORAD_CAT_ID   = 67087
ELEMENT_SET_NO = 999
REV_AT_EPOCH   = 414
BSTAR          = .15298765E-2
MEAN_MOTION_DOT = .67475E-3
MEAN_MOTION_DDOT = 0

CCSDS_OMM_VERS = 2.0
CREATION_DATE  = 
ORIGINATOR     = 

OBJECT_NAME    = STARLINK-35882
OBJECT_ID      = 2025-298P
CENTER_NAME    = EARTH
REF_FRAME      = TEME
TIME_SYSTEM    = UTC
MEAN_ELEMENT_THEORY = SGP/SGP4

EPOCH          = 2026-01-09T14:06:49.603968
MEAN_MOTION    = 15.52555936
ECCENTRICITY   = .00031941
INCLINATION    = 70.0002
RA_OF_ASC_NODE = 171.9240
ARG_OF_PERICENTER = 276.7658
MEAN_ANOMALY   = 83.3166

EPHEMERIS_TYPE = 0
CLASSIFICATION_TYPE = U
NORAD_CAT_ID   = 67088
ELEMENT_SET_NO = 999
REV_AT_EPOCH   = 415
BSTAR          = .19861962E-2
MEAN_MOTION_DOT = .124114E-2
MEAN_MOTION_DDOT = 0

CCSDS_OMM_VERS = 2.0
CREATION_DATE  = 
ORIGINATOR     = 

OBJECT_NAME    = STARLINK-35763
OBJECT_ID      = 2025-298Q
CENTER_NAME    = EARTH
REF_FRAME      = TEME
TIME_SYSTEM    = UTC
MEAN_ELEMENT_THEORY = SGP/SGP4

EPOCH          = 2026-01-09T22:00:01.999584
MEAN_MOTION    = 15.42686481
ECCENTRICITY   = .00034329
INCLINATION    = 69.9998
RA_OF_ASC_NODE = 171.1886
ARG_OF_PERICENTER = 275.0016
MEAN_ANOMALY   = 335.6773

EPHEMERIS_TYPE = 0
CLASSIFICATION_TYPE = U
NORAD_CAT_ID   = 67089
ELEMENT_SET_NO = 999
REV_AT_EPOCH   = 550
BSTAR          = .13630893E-2
MEAN_MOTION_DOT = .59959E-3
MEAN_MOTION_DDOT = 0

CCSDS_OMM_VERS = 2.0
CREATION_DATE  = 
ORIGINATOR     = 

OBJECT_NAME    = STARLINK-36060
OBJECT_ID      = 2025-298R
CENTER_NAME    = EARTH
REF_FRAME      = TEME
TIME_SYSTEM    = UTC
MEAN_ELEMENT_THEORY = SGP/SGP4

EPOCH          = 2026-01-09T22:00:01.999584
MEAN_MOTION    = 15.42694112
ECCENTRICITY   = .000395
INCLINATION    = 69.9999
RA_OF_ASC_NODE = 171.0852
ARG_OF_PERICENTER = 284.3617
MEAN_ANOMALY   = 56.2828

EPHEMERIS_TYPE = 0
CLASSIFICATION_TYPE = U
NORAD_CAT_ID   = 67090
ELEMENT_SET_NO = 999
REV_AT_EPOCH   = 544
BSTAR          = .14420456E-2
MEAN_MOTION_DOT = .6349E-3
MEAN_MOTION_DDOT = 0

CCSDS_OMM_VERS = 2.0
CREATION_DATE  = 
ORIGINATOR     = 

OBJECT_NAME    = STARLINK-36097
OBJECT_ID      = 2025-298S
CENTER_NAME    = EARTH
REF_FRAME      = TEME
TIME_SYSTEM    = UTC
MEAN_ELEMENT_THEORY = SGP/SGP4

EPOCH          = 2026-01-09T22:00:01.999584
MEAN_MOTION    = 15.42684910
ECCENTRICITY   = .00033509
INCLINATION    = 69.9999
RA_OF_ASC_NODE = 171.1111
ARG_OF_PERICENTER = 275.0814
MEAN_ANOMALY   = 43.6016

EPHEMERIS_TYPE = 0
CLASSIFICATION_TYPE = U
NORAD_CAT_ID   = 67091
ELEMENT_SET_NO = 999
REV_AT_EPOCH   = 550
BSTAR          = .13042978E-2
MEAN_MOTION_DOT = .57344E-3
MEAN_MOTION_DDOT = 0

CCSDS_OMM_VERS = 2.0
CREATION_DATE  = 
ORIGINATOR     = 

OBJECT_NAME    = STARLINK-35792
OBJECT_ID      = 2025-298T
CENTER_NAME    = EARTH
REF_FRAME      = TEME
TIME_SYSTEM    = UTC
MEAN_ELEMENT_THEORY = SGP/SGP4

EPOCH          = 2026-01-09T22:00:01.999584
MEAN_MOTION    = 15.42662963
ECCENTRICITY   = .00039106
INCLINATION    = 69.9998
RA_OF_ASC_NODE = 171.1350
ARG_OF_PERICENTER = 277.3341
MEAN_ANOMALY   = 19.3695

EPHEMERIS_TYPE = 0
CLASSIFICATION_TYPE = U
NORAD_CAT_ID   = 67092
ELEMENT_SET_NO = 999
REV_AT_EPOCH   = 544
BSTAR          = .16333512E-2
MEAN_MOTION_DOT = .71936E-3
MEAN_MOTION_DDOT = 0

CCSDS_OMM_VERS = 2.0
CREATION_DATE  = 
ORIGINATOR     = 

OBJECT_NAME    = STARLINK-35784
OBJECT_ID      = 2025-298U
CENTER_NAME    = EARTH
REF_FRAME      = TEME
TIME_SYSTEM    = UTC
MEAN_ELEMENT_THEORY = SGP/SGP4

EPOCH          = 2026-01-09T14:53:13.827552
MEAN_MOTION    = 15.42732453
ECCENTRICITY   = .00034979
INCLINATION    = 69.9995
RA_OF_ASC_NODE = 172.0397
ARG_OF_PERICENTER = 258.3669
MEAN_ANOMALY   = 101.7121

EPHEMERIS_TYPE = 0
CLASSIFICATION_TYPE = U
NORAD_CAT_ID   = 67093
ELEMENT_SET_NO = 999
REV_AT_EPOCH   = 415
BSTAR          = .75484197E-3
MEAN_MOTION_DOT = .33073E-3
MEAN_MOTION_DDOT = 0

CCSDS_OMM_VERS = 2.0
CREATION_DATE  = 
ORIGINATOR     = 

OBJECT_NAME    = STARLINK-36202
OBJECT_ID      = 2025-298V
CENTER_NAME    = EARTH
REF_FRAME      = TEME
TIME_SYSTEM    = UTC
MEAN_ELEMENT_THEORY = SGP/SGP4

EPOCH          = 2026-01-09T14:47:16.201536
MEAN_MOTION    = 15.42713170
ECCENTRICITY   = .00032594
INCLINATION    = 70.0003
RA_OF_ASC_NODE = 172.0250
ARG_OF_PERICENTER = 271.2905
MEAN_ANOMALY   = 88.7904

EPHEMERIS_TYPE = 0
CLASSIFICATION_TYPE = U
NORAD_CAT_ID   = 67094
ELEMENT_SET_NO = 999
REV_AT_EPOCH   = 415
BSTAR          = .21757322E-3
MEAN_MOTION_DOT = .9392E-4
MEAN_MOTION_DDOT = 0

